[{"OBJECT_NAME":"BUFENG 1A","OBJECT_ID":"2019-032A","EPOCH":"2026-03-09T22:03:27.507168","MEAN_MOTION":15.26012088,"ECCENTRICITY":0.00054719,"INCLINATION":44.9758,"RA_OF_ASC_NODE":238.6688,"ARG_OF_PERICENTER":55.4463,"MEAN_ANOMALY":304.6935,"EPHEMERIS_TYPE":0,"CLASSIFICATION_TYPE":"U","NORAD_CAT_ID":44310,"ELEMENT_SET_NO":999,"REV_AT_EPOCH":37201,"BSTAR":0.00062413703,"MEAN_MOTION_DOT":0.00016103,"MEAN_MOTION_DDOT":0},{"OBJECT_NAME":"STARLINK-31765","OBJECT_ID":"2024-080D","EPOCH":"2026-03-09T07:06:43.298208","MEAN_MOTION":15.27581172,"ECCENTRICITY":0.0001372,"INCLINATION":43.0055,"RA_OF_ASC_NODE":36.5718,"ARG_OF_PERICENTER":264.6556,"MEAN_ANOMALY":95.4139,"EPHEMERIS_TYPE":0,"CLASSIFICATION_TYPE":"U","NORAD_CAT_ID":59604,"ELEMENT_SET_NO":999,"REV_AT_EPOCH":10451,"BSTAR":-0.00012668251,"MEAN_MOTION_DOT":-3.747e-5,"MEAN_MOTION_DDOT":0}]
